{
"type": "FeatureCollection",
"name": "radares-tramo",
"crs": { "type": "name", "properties": { "name": "urn:ogc:def:crs:OGC:1.3:CRS84" } },
"features": [
{ "type": "Feature", "properties": { "id": 40, "via": "ZENGOTITA", "velocidad": 60, "distancia_m": 6 }, "geometry": { "type": "LineString", "coordinates": [ [ -2.562115125422689, 43.195966261236613, 397.598299999997835 ], [ -2.562010026938211, 43.195993530571364, 397.65679999999702 ], [ -2.561805701497283, 43.196052579413916, 398.297600000005332 ], [ -2.561658316034145, 43.196094713602335, 398.798200000004726 ], [ -2.56152262639183, 43.196135665977714, 399.225300000005518 ], [ -2.561350040954202, 43.196192634882827, 399.81140000000596 ], [ -2.56128776480539, 43.196215580656727, 399.990000000005239 ], [ -2.561218067029439, 43.196241263295782, 400.21140000000014 ], [ -2.561135426997842, 43.196273017684796, 400.481299999999464 ], [ -2.56097517269, 43.196341924114137, 401.03179999999702 ], [ -2.560915768497958, 43.196370078254979, 401.225099999996019 ], [ -2.560753830393097, 43.196450936236062, 401.802899999995134 ], [ -2.560595558390585, 43.19653522627511, 402.405499999993481 ], [ -2.560411901257869, 43.196641049800121, 403.099300000001676 ], [ -2.560157741233637, 43.196793251171137, 404.157999999995809 ], [ -2.560047609551725, 43.196859153191021, 404.612399999998161 ], [ -2.559906169509621, 43.196942204906804, 405.188299999994342 ], [ -2.559760908238414, 43.197026685205593, 405.793699999994715 ], [ -2.559641564516574, 43.197099923581753, 406.314599999997881 ], [ -2.559475678541852, 43.19717866013287, 406.895000000004075 ], [ -2.559364241414141, 43.197229249268439, 407.299899999998161 ], [ -2.559270985547959, 43.197266683042372, 407.628100000001723 ], [ -2.559138941426379, 43.19730963667584, 408.06239999999525 ], [ -2.559014642407397, 43.197352620010527, 408.576799999995274 ], [ -2.558924049958308, 43.197378728573028, 408.926699999996345 ], [ -2.558835037870812, 43.197401580732539, 409.232300000003306 ] ] } },
{ "type": "Feature", "properties": { "id": 41, "via": "BI-633", "velocidad": 60, "distancia_m": 3 }, "geometry": { "type": "LineString", "coordinates": [ [ -2.541535499065254, 43.211642038888691, 387.280799999993178 ], [ -2.541584003054079, 43.211645503776261, 387.529099999999744 ], [ -2.541967155436188, 43.211721212260407, 389.490999999994528 ], [ -2.542472857448399, 43.211791676316963, 392.032000000006519 ], [ -2.542588819076685, 43.21180924992008, 392.62960000000021 ], [ -2.542638123553784, 43.211817646754625, 392.905499999993481 ], [ -2.542726637312945, 43.21183100522348, 393.398300000000745 ] ] } }
]
}
